NORAD_CAT_ID,OBJECT_NAME,OBJECT_TYPE,EPOCH,MEAN_MOTION,ECCENTRICITY,INCLINATION,RA_OF_ASC_NODE,ARG_OF_PERICENTER,MEAN_ANOMALY,BSTAR,MEAN_MOTION_DOT,MEAN_MOTION_DDOT,TLE_LINE0,TLE_LINE1,TLE_LINE2,SEMIMAJOR_AXIS,PERIOD,APOGEE,PERIGEE,DECAYED
54165.0,STARLINK-5279,PAYLOAD,2023-12-05 18:37:26,15.0884083,0.000116,53.2174,117.2759,90.1003,270.0123,0.00039202,5.957e-05,0.0,0 STARLINK-5279,1 54165U 22141J   23339.77600265  .00005957  00000-0  39202-3 0  9999,2 54165  53.2174 117.2759 0001160  90.1003 270.0123 15.08840830 61186,6917.878,95.438,540.545,538.94,0.0
54165.0,STARLINK-5279,PAYLOAD,2023-12-06 08:55:55,15.08838579,7.68e-05,53.2147,114.6009,145.8622,214.2419,4.5603e-05,4.38e-06,0.0,0 STARLINK-5279,1 54165U 22141J   23340.37217165  .00000438  00000-0  45603-4 0  9992,2 54165  53.2147 114.6009 0000768 145.8622 214.2419 15.08838579 61278,6917.885,95.438,540.281,539.218,0.0
54165.0,STARLINK-5279,PAYLOAD,2023-12-07 08:46:41,15.08892808,0.0001396,53.2149,110.1384,128.3287,231.783,-0.00060612,-9.935e-05,0.0,0 STARLINK-5279,1 54165U 22141J   23341.36575360 -.00009935  00000-0 -60612-3 0  9995,2 54165  53.2149 110.1384 0001396 128.3287 231.7830 15.08892808 61421,6917.719,95.434,540.55,538.618,0.0
54165.0,STARLINK-5279,PAYLOAD,2023-12-07 13:32:52,15.08842859,0.0001281,53.2172,109.2509,77.226,282.8875,-2.9161e-05,-7.52e-06,0.0,0 STARLINK-5279,1 54165U 22141J   23341.56449411 -.00000752  00000-0 -29161-4 0  9997,2 54165  53.2172 109.2509 0001281  77.2260 282.8875 15.08842859 61451,6917.872,95.437,540.623,538.85,0.0
54165.0,STARLINK-5279,PAYLOAD,2023-12-08 13:23:39,15.08839191,0.0001369,53.2181,104.7909,91.4416,268.6733,5.515e-05,5.9e-06,0.0,0 STARLINK-5279,1 54165U 22141J   23342.55809179  .00000590  00000-0  55150-4 0  9993,2 54165  53.2181 104.7909 0001369  91.4416 268.6733 15.08839191 61600,6917.883,95.438,540.695,538.801,0.0
54165.0,STARLINK-5279,PAYLOAD,2023-12-08 18:09:48,15.08841728,0.0001466,53.2178,103.8972,102.2787,257.8369,7.1691e-05,8.53e-06,0.0,0 STARLINK-5279,1 54165U 22141J   23342.75680897  .00000853  00000-0  71691-4 0  9999,2 54165  53.2178 103.8972 0001466 102.2787 257.8369 15.08841728 61633,6917.875,95.437,540.754,538.726,0.0
54165.0,STARLINK-5279,PAYLOAD,2023-12-09 11:39:03,15.08836058,0.0001602,53.2171,100.6246,116.2285,243.8872,-8.0564e-06,-4.16e-06,0.0,0 STARLINK-5279,1 54165U 22141J   23343.48545514 -.00000416  00000-0 -80564-5 0  9993,2 54165  53.2171 100.6246 0001602 116.2285 243.8872 15.08836058 61741,6917.892,95.438,540.866,538.649,0.0
54165.0,STARLINK-5279,PAYLOAD,2023-12-09 13:14:26,15.0883653,0.000158,53.2175,100.3275,114.0428,246.073,-6.2107e-06,-3.87e-06,0.0,0 STARLINK-5279,1 54165U 22141J   23343.55169496 -.00000387  00000-0 -62107-5 0  9992,2 54165  53.2175 100.3275 0001580 114.0428 246.0730 15.08836530 61758,6917.891,95.438,540.849,538.663,0.0
54165.0,STARLINK-5279,PAYLOAD,2023-12-09 18:00:35,15.08838725,0.0001585,53.2173,99.4348,115.5917,244.5239,7.6391e-06,-1.66e-06,0.0,0 STARLINK-5279,1 54165U 22141J   23343.75041310 -.00000166  00000-0  76391-5 0  9992,2 54165  53.2173  99.4348 0001585 115.5917 244.5239 15.08838725 61787,6917.884,95.438,540.846,538.653,0.0
54165.0,STARLINK-5279,PAYLOAD,2023-12-10 13:05:13,15.08839728,0.0001521,53.2181,95.8656,111.8273,248.2881,-2.4948e-05,-6.85e-06,0.0,0 STARLINK-5279,1 54165U 22141J   23344.54529565 -.00000685  00000-0 -24948-4 0  9990,2 54165  53.2181  95.8656 0001521 111.8273 248.2881 15.08839728 61904,6917.881,95.438,540.798,538.694,0.0
54165.0,STARLINK-5279,PAYLOAD,2023-12-11 12:56:00,15.08841737,0.0001283,53.2179,91.4061,99.7463,260.3674,-1.0092e-05,-4.49e-06,0.0,0 STARLINK-5279,1 54165U 22141J   23345.53889609 -.00000449  00000-0 -10092-4 0  9991,2 54165  53.2179  91.4061 0001283  99.7463 260.3674 15.08841737 62058,6917.875,95.437,540.628,538.853,0.0
54165.0,STARLINK-5279,PAYLOAD,2023-12-12 11:11:25,15.08833603,0.0001291,53.2183,87.244,84.0468,276.0671,-6.2671e-06,-3.88e-06,0.0,0 STARLINK-5279,1 54165U 22141J   23346.46626463 -.00000388  00000-0 -62671-5 0  9994,2 54165  53.2183  87.2440 0001291  84.0468 276.0671 15.08833603 62197,6917.9,95.438,540.658,538.872,0.0
54165.0,STARLINK-5279,PAYLOAD,2023-12-12 12:46:48,15.08834253,0.0001323,53.2186,86.9467,85.5541,274.5602,-7.3567e-07,-3e-06,0.0,0 STARLINK-5279,1 54165U 22141J   23346.53250426 -.00000300  00000-0 -73567-6 0  9995,2 54165  53.2186  86.9467 0001323  85.5541 274.5602 15.08834253 62200,6917.898,95.438,540.678,538.848,0.0
54165.0,STARLINK-5279,PAYLOAD,2023-12-12 14:22:11,15.08836214,0.0001313,53.2181,86.6487,76.804,283.3099,1.0702e-05,-1.18e-06,0.0,0 STARLINK-5279,1 54165U 22141J   23346.59874314 -.00000118  00000-0  10702-4 0  9995,2 54165  53.2181  86.6487 0001313  76.8040 283.3099 15.08836214 62218,6917.892,95.438,540.665,538.849,0.0
54165.0,STARLINK-5279,PAYLOAD,2023-12-13 11:02:11,15.08842024,0.0001317,53.218,82.7819,78.5859,281.5281,9.6326e-05,1.246e-05,0.0,0 STARLINK-5279,1 54165U 22141J   23347.45985556  .00001246  00000-0  96326-4 0  9990,2 54165  53.2180  82.7819 0001317  78.5859 281.5281 15.08842024 62347,6917.874,95.437,540.65,538.828,0.0
54165.0,STARLINK-5279,PAYLOAD,2023-12-13 14:12:57,15.0884715,0.0001401,53.2182,82.1882,77.2813,282.8335,0.00013583,1.875e-05,0.0,0 STARLINK-5279,1 54165U 22141J   23347.59233125  .00001875  00000-0  13583-3 0  9994,2 54165  53.2182  82.1882 0001401  77.2813 282.8335 15.08847150 62364,6917.859,95.437,540.693,538.754,0.0
54165.0,STARLINK-5279,PAYLOAD,2023-12-14 10:52:58,15.0884198,0.0001373,53.2189,78.3197,81.8559,278.2589,1.4013e-05,-6.5e-07,0.0,0 STARLINK-5279,1 54165U 22141J   23348.45345780 -.00000065  00000-0  14013-4 0  9992,2 54165  53.2189  78.3197 0001373  81.8559 278.2589 15.08841980 62492,6917.874,95.437,540.689,538.79,0.0
54165.0,STARLINK-5279,PAYLOAD,2023-12-14 12:28:21,15.08841908,0.0001647,53.2194,78.0221,69.1009,291.016,4.9658e-05,5.02e-06,0.0,0 STARLINK-5279,1 54165U 22141J   23348.51969791  .00000502  00000-0  49658-4 0  9991,2 54165  53.2194  78.0221 0001647  69.1009 291.0160 15.08841908 62506,6917.875,95.437,540.879,538.6,0.0
54165.0,STARLINK-5279,PAYLOAD,2023-12-15 12:19:08,15.08845692,0.0001496,53.2182,73.5649,76.6256,283.4903,-8.4523e-05,-1.633e-05,0.0,0 STARLINK-5279,1 54165U 22141J   23349.51329853 -.00001633  00000-0 -84523-4 0  9999,2 54165  53.2182  73.5649 0001496  76.6256 283.4903 15.08845692 62656,6917.863,95.437,540.763,538.693,0.0
54165.0,STARLINK-5279,PAYLOAD,2023-12-16 10:34:32,15.08839577,0.0001592,53.2184,69.4028,87.6386,272.4789,3.4038e-05,2.54e-06,0.0,0 STARLINK-5279,1 54165U 22141J   23350.44065725  .00000254  00000-0  34038-4 0  9990,2 54165  53.2184  69.4028 0001592  87.6386 272.4789 15.08839577 62796,6917.882,95.438,540.848,538.645,0.0
54165.0,STARLINK-5279,PAYLOAD,2023-12-17 12:00:43,15.08834937,0.0001629,53.2187,64.647,90.5287,269.5891,9.2799e-06,-1.4e-06,0.0,0 STARLINK-5279,1 54165U 22141J   23351.50050437 -.00000140  00000-0  92799-5 0  9996,2 54165  53.2187  64.6470 0001629  90.5287 269.5891 15.08834937 62955,6917.896,95.438,540.888,538.634,0.0
54165.0,STARLINK-5279,PAYLOAD,2023-12-18 11:51:29,15.08829573,0.0001776,53.2191,60.1876,108.6788,251.4398,0.00031467,4.722e-05,0.0,0 STARLINK-5279,1 54165U 22141J   23352.49409620  .00004722  00000-0  31467-3 0  9999,2 54165  53.2191  60.1876 0001776 108.6788 251.4398 15.08829573 63101,6917.912,95.438,541.006,538.549,0.0
54165.0,STARLINK-5279,PAYLOAD,2023-12-19 11:42:17,15.08839747,0.0001493,53.219,55.7267,95.2497,264.8665,1.585e-05,-3.6e-07,0.0,0 STARLINK-5279,1 54165U 22141J   23353.48770365 -.00000036  00000-0  15850-4 0  9990,2 54165  53.2190  55.7267 0001493  95.2497 264.8665 15.08839747 63253,6917.881,95.438,540.779,538.713,0.0
54165.0,STARLINK-5279,PAYLOAD,2023-12-20 11:33:05,15.08837991,0.0001474,53.219,51.2621,80.2209,279.895,-0.00011331,-2.091e-05,0.0,0 STARLINK-5279,1 54165U 22141J   23354.48131235 -.00002091  00000-0 -11331-3 0  9991,2 54165  53.2190  51.2621 0001474  80.2209 279.8950 15.08837991 63401,6917.887,95.438,540.771,538.732,0.0
54165.0,STARLINK-5279,PAYLOAD,2023-12-21 11:23:51,15.08848701,0.0001577,53.2179,46.8112,83.482,276.6352,0.0001133,1.516e-05,0.0,0 STARLINK-5279,1 54165U 22141J   23355.47490324  .00001516  00000-0  11330-3 0  9996,2 54165  53.2179  46.8112 0001577  83.4820 276.6352 15.08848701 63559,6917.854,95.437,540.81,538.628,0.0
54165.0,STARLINK-5279,PAYLOAD,2023-12-22 09:39:16,15.08839358,0.0001819,53.2192,42.6458,67.6342,292.4843,9.1856e-05,1.174e-05,0.0,0 STARLINK-5279,1 54165U 22141J   23356.40227322  .00001174  00000-0  91856-4 0  9998,2 54165  53.2192  42.6458 0001819  67.6342 292.4843 15.08839358 63697,6917.882,95.438,541.006,538.489,0.0
54165.0,STARLINK-5279,PAYLOAD,2023-12-23 12:40:49,15.08851772,0.0001539,53.2176,37.5847,96.4657,263.6511,-2.3885e-05,-6.68e-06,0.0,0 STARLINK-5279,1 54165U 22141J   23357.52834589 -.00000668  00000-0 -23885-4 0  9997,2 54165  53.2176  37.5847 0001539  96.4657 263.6511 15.08851772 63867,6917.844,95.437,540.774,538.645,0.0
54165.0,STARLINK-5279,PAYLOAD,2023-12-24 02:59:18,15.08822612,0.0001693,53.2176,34.907,96.7504,263.3681,0.00020595,2.99e-05,0.0,0 STARLINK-5279,1 54165U 22141J   23358.12451566  .00002990  00000-0  20595-3 0  9996,2 54165  53.2176  34.9070 0001693  96.7504 263.3681 15.08822612 63957,6917.934,95.439,540.97,538.627,0.0
54165.0,STARLINK-5279,PAYLOAD,2023-12-24 09:20:50,15.08843729,0.0001638,53.2192,33.7142,94.7378,265.3801,6.7152e-05,7.81e-06,0.0,0 STARLINK-5279,1 54165U 22141J   23358.38946893  .00000781  00000-0  67152-4 0  9993,2 54165  53.2192  33.7142 0001638  94.7378 265.3801 15.08843729 63990,6917.869,95.437,540.867,538.601,0.0
54165.0,STARLINK-5279,PAYLOAD,2023-12-25 09:11:37,15.08845459,0.0001626,53.219,29.259,103.2363,256.881,9.266e-05,1.187e-05,0.0,0 STARLINK-5279,1 54165U 22141J   23359.38306805  .00001187  00000-0  92660-4 0  9990,2 54165  53.2190  29.2590 0001626 103.2363 256.8810 15.08845459 64147,6917.864,95.437,540.854,538.604,0.0
